NORAD_CAT_ID,OBJECT_NAME,OBJECT_TYPE,EPOCH,MEAN_MOTION,ECCENTRICITY,INCLINATION,RA_OF_ASC_NODE,ARG_OF_PERICENTER,MEAN_ANOMALY,BSTAR,MEAN_MOTION_DOT,MEAN_MOTION_DDOT,TLE_LINE0,TLE_LINE1,TLE_LINE2,SEMIMAJOR_AXIS,PERIOD,APOGEE,PERIGEE,DECAYED
52856.0,STARLINK-4201,PAYLOAD,2023-07-20 23:00:52,15.08840613,0.0001281,53.218,25.9825,115.9034,244.209,0.00032449,4.88e-05,0.0,0 STARLINK-4201,1 52856U 22062AC  23201.95893935  .00004880  00000-0  32449-3 0  9992,2 52856  53.2180  25.9825 0001281 115.9034 244.2090 15.08840613 61074,6917.879,95.438,540.63,538.857,0.0
52856.0,STARLINK-4201,PAYLOAD,2023-07-23 20:57:51,15.08839632,0.0001078,53.2188,12.8966,83.1042,277.0073,-1.124e-05,-4.67e-06,0.0,0 STARLINK-4201,1 52856U 22062AC  23204.87351227 -.00000467  00000-0 -11240-4 0  9995,2 52856  53.2188  12.8966 0001078  83.1042 277.0073 15.08839632 61021,6917.882,95.438,540.492,539.001,0.0
52856.0,STARLINK-4201,PAYLOAD,2023-07-25 11:07:08,15.0883105,0.0002377,53.2166,5.7584,84.8229,275.3035,0.00012124,1.641e-05,0.0,0 STARLINK-4201,1 52856U 22062AC  23206.46328879  .00001641  00000-0  12124-3 0  9993,2 52856  53.2166   5.7584 0002377  84.8229 275.3035 15.08831050 61263,6917.908,95.438,541.417,538.128,0.0
52856.0,STARLINK-4201,PAYLOAD,2023-07-26 10:57:53,15.08820223,0.0001044,53.218,1.301,87.0898,273.0214,0.00052009,7.995e-05,0.0,0 STARLINK-4201,1 52856U 22062AC  23207.45687416  .00007995  00000-0  52009-3 0  9992,2 52856  53.2180   1.3010 0001044  87.0898 273.0214 15.08820223 61413,6917.941,95.439,540.528,539.084,0.0
52856.0,STARLINK-4201,PAYLOAD,2023-07-26 18:54:48,15.08838331,9.11e-05,53.2181,359.8145,81.8247,278.2848,0.00060697,9.385e-05,0.0,0 STARLINK-4201,1 52856U 22062AC  23207.78806288  .00009385  00000-0  60697-3 0  9995,2 52856  53.2181 359.8145 0000911  81.8247 278.2848 15.08838331 61460,6917.885,95.438,540.381,539.12,0.0
52856.0,STARLINK-4201,PAYLOAD,2023-07-27 02:51:46,15.08820051,7.77e-05,53.2183,358.3286,77.9352,282.1727,0.0003843,5.83e-05,0.0,0 STARLINK-4201,1 52856U 22062AC  23208.11928309  .00005830  00000-0  38430-3 0  9993,2 52856  53.2183 358.3286 0000777  77.9352 282.1727 15.08820051 62006,6917.941,95.439,540.344,539.269,0.0
52856.0,STARLINK-4201,PAYLOAD,2023-07-27 17:10:14,15.08846024,0.0001884,53.2185,355.6514,78.9668,281.1536,-3.3796e-05,-8.26e-06,0.0,0 STARLINK-4201,1 52856U 22062AC  23208.71544114 -.00000826  00000-0 -33796-4 0  9990,2 52856  53.2185 355.6514 0001884  78.9668 281.1536 15.08846024 62097,6917.862,95.437,541.03,538.424,0.0
52856.0,STARLINK-4201,PAYLOAD,2023-07-27 20:21:00,15.08837689,0.0001315,53.2173,355.0596,67.1178,292.9953,-8.3916e-05,-1.623e-05,0.0,0 STARLINK-4201,1 52856U 22062AC  23208.84792778 -.00001623  00000-0 -83916-4 0  9990,2 52856  53.2173 355.0596 0001315  67.1178 292.9953 15.08837689 61621,6917.887,95.438,540.662,538.843,0.0
52856.0,STARLINK-4201,PAYLOAD,2023-07-28 02:42:33,15.08840801,0.0001119,53.2169,353.8702,80.1593,279.9526,-0.00012456,-2.27e-05,0.0,0 STARLINK-4201,1 52856U 22062AC  23209.11288506 -.00002270  00000-0 -12456-3 0  9999,2 52856  53.2169 353.8702 0001119  80.1593 279.9526 15.08840801 61664,6917.878,95.438,540.517,538.969,0.0
52856.0,STARLINK-4201,PAYLOAD,2023-07-29 02:33:19,15.08854214,9.53e-05,53.2158,349.4086,84.7863,275.3238,-0.00011209,-2.072e-05,0.0,0 STARLINK-4201,1 52856U 22062AC  23210.10647177 -.00002072  00000-0 -11209-3 0  9998,2 52856  53.2158 349.4086 0000953  84.7863 275.3238 15.08854214 62308,6917.837,95.437,540.361,539.043,0.0
52856.0,STARLINK-4201,PAYLOAD,2023-07-29 18:27:10,15.08835776,0.0001064,53.2169,346.4342,86.0109,274.1005,0.00029063,4.34e-05,0.0,0 STARLINK-4201,1 52856U 22062AC  23210.76887524  .00004340  00000-0  29063-3 0  9997,2 52856  53.2169 346.4342 0001064  86.0109 274.1005 15.08835776 62406,6917.893,95.438,540.494,539.022,0.0
52856.0,STARLINK-4201,PAYLOAD,2023-07-29 21:37:56,15.08852254,9.23e-05,53.2168,345.8394,85.6436,274.4662,0.00022005,3.217e-05,0.0,0 STARLINK-4201,1 52856U 22062AC  23210.90134550  .00003217  00000-0  22005-3 0  9998,2 52856  53.2168 345.8394 0000923  85.6436 274.4662 15.08852254 62420,6917.843,95.437,540.346,539.069,0.0
52856.0,STARLINK-4201,PAYLOAD,2023-07-30 18:17:57,15.08845951,0.0001135,53.2203,341.9693,91.4278,268.6844,6.0699e-05,6.78e-06,0.0,0 STARLINK-4201,1 52856U 22062AC  23211.76247458  .00000678  00000-0  60699-4 0  9995,2 52856  53.2203 341.9693 0001135  91.4278 268.6844 15.08845951 62551,6917.862,95.437,540.512,538.942,0.0
52856.0,STARLINK-4201,PAYLOAD,2023-07-31 02:14:53,15.08836854,5.63e-05,53.22,340.483,98.3489,261.7567,9.2764e-05,1.189e-05,0.0,0 STARLINK-4201,1 52856U 22062AC  23212.09367614  .00001189  00000-0  92764-4 0  9995,2 52856  53.2200 340.4830 0000563  98.3489 261.7567 15.08836854 62603,6917.89,95.438,540.144,539.366,0.0
52856.0,STARLINK-4201,PAYLOAD,2023-07-31 16:33:21,15.08850552,9.66e-05,53.2187,337.8087,92.1978,267.9125,-9.3458e-06,-4.37e-06,0.0,0 STARLINK-4201,1 52856U 22062AC  23212.68983134 -.00000437  00000-0 -93458-5 0  9990,2 52856  53.2187 337.8087 0000966  92.1978 267.9125 15.08850552 62691,6917.848,95.437,540.381,539.045,0.0
52856.0,STARLINK-4201,PAYLOAD,2023-08-02 16:14:55,15.08847134,0.0001003,53.2177,328.8903,82.1011,278.0095,9.1257e-05,1.165e-05,0.0,0 STARLINK-4201,1 52856U 22062AC  23214.67703189  .00001165  00000-0  91257-4 0  9992,2 52856  53.2177 328.8903 0001003  82.1011 278.0095 15.08847134 62991,6917.859,95.437,540.417,539.03,0.0
52856.0,STARLINK-4201,PAYLOAD,2023-08-03 08:08:47,15.08842023,9.19e-05,53.2178,325.9163,87.4535,272.6562,3.9767e-05,3.45e-06,0.0,0 STARLINK-4201,1 52856U 22062AC  23215.33943588  .00000345  00000-0  39767-4 0  9992,2 52856  53.2178 325.9163 0000919  87.4535 272.6562 15.08842023 63095,6917.874,95.437,540.375,539.103,0.0
52856.0,STARLINK-4201,PAYLOAD,2023-08-03 17:41:05,15.0885389,9.94e-05,53.218,324.1318,89.4194,270.6912,0.00013764,1.904e-05,0.0,0 STARLINK-4201,1 52856U 22062AC  23215.73686485  .00001904  00000-0  13764-3 0  9996,2 52856  53.2180 324.1318 0000994  89.4194 270.6912 15.08853890 63155,6917.838,95.437,540.391,539.015,0.0
52856.0,STARLINK-4201,PAYLOAD,2023-08-04 11:10:21,15.08833872,9.68e-05,53.2177,320.8624,94.2956,265.8147,-4.2488e-05,-9.64e-06,0.0,0 STARLINK-4201,1 52856U 22062AC  23216.46552564 -.00000964  00000-0 -42488-4 0  9990,2 52856  53.2177 320.8624 0000968  94.2956 265.8147 15.08833872 63261,6917.899,95.438,540.434,539.094,0.0
52856.0,STARLINK-4201,PAYLOAD,2023-08-04 19:07:16,15.08842513,0.0001138,53.2182,319.3737,83.1906,276.9216,2.5966e-05,1.25e-06,0.0,0 STARLINK-4201,1 52856U 22062AC  23216.79671886  .00000125  00000-0  25966-4 0  9994,2 52856  53.2182 319.3737 0001138  83.1906 276.9216 15.08842513 63315,6917.873,95.437,540.525,538.95,0.0
52856.0,STARLINK-4201,PAYLOAD,2023-08-05 14:11:52,15.08860622,0.0001089,53.2181,315.809,88.1356,271.9761,0.00017978,2.576e-05,0.0,0 STARLINK-4201,1 52856U 22062AC  23217.59158387  .00002576  00000-0  17978-3 0  9994,2 52856  53.2181 315.8090 0001089  88.1356 271.9761 15.08860622 63430,6917.817,95.436,540.436,538.929,0.0
52856.0,STARLINK-4201,PAYLOAD,2023-08-05 23:44:12,15.08846016,0.0001237,53.2178,314.0216,75.7934,284.3196,1.0363e-05,-1.23e-06,0.0,0 STARLINK-4201,1 52856U 22062AC  23217.98903548 -.00000123  00000-0  10363-4 0  9993,2 52856  53.2178 314.0216 0001237  75.7934 284.3196 15.08846016 63493,6917.862,95.437,540.583,538.871,0.0
52856.0,STARLINK-4201,PAYLOAD,2023-08-06 10:51:56,15.08827343,0.0001401,53.2165,311.9429,76.9564,283.1584,1.9993e-05,3e-07,0.0,0 STARLINK-4201,1 52856U 22062AC  23218.45273256  .00000030  00000-0  19993-4 0  9996,2 52856  53.2165 311.9429 0001401  76.9564 283.1584 15.08827343 63564,6917.919,95.438,540.753,538.815,0.0
52856.0,STARLINK-4201,PAYLOAD,2023-08-07 05:56:33,15.08837589,0.0001146,53.2169,308.3732,65.6965,294.4147,4.7923e-05,4.75e-06,0.0,0 STARLINK-4201,1 52856U 22062AC  23219.24760793  .00000475  00000-0  47923-4 0  9998,2 52856  53.2169 308.3732 0001146  65.6965 294.4147 15.08837589 63687,6917.888,95.438,540.546,538.96,0.0
52856.0,STARLINK-4201,PAYLOAD,2023-08-07 17:04:14,15.08851761,0.0001046,53.2162,306.2921,96.5059,263.6053,0.00011223,1.499e-05,0.0,0 STARLINK-4201,1 52856U 22062AC  23219.71127922  .00001499  00000-0  11223-3 0  9991,2 52856  53.2162 306.2921 0001046  96.5059 263.6053 15.08851761 63753,6917.844,95.437,540.433,538.986,0.0
52856.0,STARLINK-4201,PAYLOAD,2023-08-08 05:47:20,15.08835885,0.0001159,53.2194,303.9135,101.9174,258.1949,0.00035394,5.349e-05,0.0,0 STARLINK-4201,1 52856U 22062AC  23220.24120892  .00005349  00000-0  35394-3 0  9993,2 52856  53.2194 303.9135 0001159 101.9174 258.1949 15.08835885 63834,6917.893,95.438,540.56,538.956,0.0
52856.0,STARLINK-4201,PAYLOAD,2023-08-08 16:55:01,15.08851076,0.0001332,53.2152,301.8315,65.841,294.2721,0.00033533,5.054e-05,0.0,0 STARLINK-4201,1 52856U 22062AC  23220.70488225  .00005054  00000-0  33533-3 0  9997,2 52856  53.2152 301.8315 0001332  65.8410 294.2721 15.08851076 63906,6917.847,95.437,540.633,538.79,0.0
52856.0,STARLINK-4201,PAYLOAD,2023-08-09 08:48:53,15.08834462,0.0001374,53.2153,298.8566,95.6168,264.4981,-8.515e-06,-4.23e-06,0.0,0 STARLINK-4201,1 52856U 22062AC  23221.36729079 -.00000423  00000-0 -85150-5 0  9996,2 52856  53.2153 298.8566 0001374  95.6168 264.4981 15.08834462 64006,6917.897,95.438,540.713,538.812,0.0
52856.0,STARLINK-4201,PAYLOAD,2023-08-10 11:50:26,15.08849155,0.0001114,53.2155,293.8021,76.4643,283.6473,0.00026101,3.87e-05,0.0,0 STARLINK-4201,1 52856U 22062AC  23222.49336602  .00003870  00000-0  26101-3 0  9993,2 52856  53.2155 293.8021 0001114  76.4643 283.6473 15.08849155 64178,6917.852,95.437,540.488,538.947,0.0
52856.0,STARLINK-4201,PAYLOAD,2023-08-10 21:22:45,15.08842915,0.000114,53.2161,292.0193,78.4255,281.6865,0.00013697,1.893e-05,0.0,0 STARLINK-4201,1 52856U 22062AC  23222.89080821  .00001893  00000-0  13697-3 0  9995,2 52856  53.2161 292.0193 0001140  78.4255 281.6865 15.08842915 64233,6917.871,95.437,540.525,538.948,0.0
